366P/Spacewatch,e,8.8570,70.7238,153.0300,3.498252,0.1506356,0.34828684,307.8779,02/20.0/2024,2000,g 15.0,4.0
# From MPC112395
367P/Catalina,e,8.4597,58.6611,172.7459,3.509808,0.1498922,0.27981898,311.0213,02/20.0/2024,2000,g 17.5,2.0
# From MPC114610
368P/NEAT,e,15.4806,257.8738,118.9409,5.532114,0.0757473,0.62643817,150.2041,02/20.0/2024,2000,g 14.0,4.0
# From MPC114610
369P/Hill,e,10.3229,47.2982,13.1820,4.380098,0.1075173,0.55585452,209.7461,02/20.0/2024,2000,g 15.0,4.0
# From MPEC 2021-F20
370P/NEAT,e,19.4235,55.0817,356.7330,6.436832,0.0603526,0.61553431,125.4640,02/20.0/2024,2000,g 13.0,4.0
# From MPC114610
371P/LINEAR-Skiff,e,17.3843,67.2845,308.5565,4.180508,0.1153083,0.47698018,226.2005,02/20.0/2024,2000,g 16.0,4.0
# From MPEC 2020-K19
372P/McNaught,e,9.5078,27.5503,326.0140,4.510373,0.1028929,0.15190615,200.0772,02/20.0/2024,2000,g 13.5,4.0
# From MPEC 2021-F20
373P/Rinner,e,13.7704,231.9462,221.0465,3.799060,0.1331036,0.39350317,236.4829,02/20.0/2024,2000,g 14.5,4.0
# From MPC114610
374P/Larson,e,10.7662,7.9090,51.4915,4.971091,0.0889255,0.46373526,165.7286,02/20.0/2024,2000,g 14.0,4.0
# From MPEC 2021-F20
375P/Hill,e,17.3650,359.9043,119.3752,5.547305,0.0754364,0.65963439,142.2826,02/20.0/2024,2000,g 16.0,4.0
# From MPEC 2022-K19
376P/LONEOS,e,1.1664,312.9114,285.4020,5.757987,0.0713342,0.51424070,115.3924,02/20.0/2024,2000,g 12.5,4.0
# From MPEC 2022-N37
377P/Scotti,e,9.0243,226.0447,354.9063,6.698603,0.0568496,0.25108677,75.0453,02/20.0/2024,2000,g  9.5,4.0
# From MPEC 2024-D33
378P/McNaught,e,19.1230,93.8626,193.4380,6.298553,0.0623509,0.46571124,76.4151,02/20.0/2024,2000,g 12.0,4.0
# From MPC115889
379P/Spacewatch,e,12.4505,30.5681,184.1210,3.493202,0.1509623,0.34907838,249.2959,02/20.0/2024,2000,g 15.0,4.0
# From MPEC 2023-C45
380P/PANSTARRS,e,8.0130,128.4554,87.8159,4.419400,0.1060862,0.33904737,186.8675,02/20.0/2024,2000,g 12.5,4.0
# From MPEC 2021-J28
381P/LINEAR-Spacewatch,e,28.3650,173.2856,173.8417,7.142399,0.0516343,0.68129840,82.9937,02/20.0/2024,2000,g 17.5,2.0
# From MPEC 2022-Y15
382P/Larson,e,8.2981,172.4929,162.7173,5.981553,0.0673726,0.27335367,54.8971,02/20.0/2024,2000,g  8.0,4.0
# From MPEC 2022-OB6
383P/Christensen,e,12.3212,207.8504,133.7595,3.547850,0.1474878,0.59890969,232.6738,02/20.0/2024,2000,g 18.0,4.0
# From MPEC 2022-OB6
384P/Kowalski,e,7.2831,354.2029,37.6998,2.898623,0.1997176,0.61630233,317.6324,02/20.0/2024,2000,g 19.5,4.0
# From MPEC 2021-F20
385P/Hill,e,16.8295,357.0720,44.3851,4.288725,0.1109716,0.40213745,179.4802,02/20.0/2024,2000,g 13.0,4.0
# From MPEC 2021-L04
386P/PANSTARRS,e,15.2386,134.9197,353.0813,4.050810,0.1208902,0.41692983,154.6845,02/20.0/2024,2000,g 14.5,4.0
# From MPEC 2021-J28
387P/Boattini,e,8.9341,259.2482,162.8168,4.797057,0.0938084,0.73707126,152.5396,02/20.0/2024,2000,g 15.0,4.0
# From MPEC 2021-S45
388P/Gibbs,e,23.8908,37.0322,42.3149,5.240629,0.0821541,0.61919472,137.2488,02/20.0/2024,2000,g 13.0,4.0
# From MPEC 2022-OB6
389P/Siding Spring,e,160.0866,218.8836,249.3897,5.633053,0.0737205,0.70495347,111.5039,02/20.0/2024,2000,g 16.0,4.0
# From MPEC 2022-OB6
390P/Gibbs,e,18.5505,152.2947,232.4197,5.814196,0.0703023,0.70726050,100.4719,02/20.0/2024,2000,g 12.0,4.0
# From MPEC 2021-F20
391P/Kowalski,e,21.2625,124.7910,187.2222,4.687745,0.0971087,0.11893020,210.0791,02/20.0/2024,2000,g  8.0,4.0
# From MPEC 2021-J28
392P/LINEAR,e,4.9320,24.8543,71.8893,6.140666,0.0647710,0.68367093,91.9198,02/20.0/2024,2000,g 14.5,4.0
# From MPEC 2023-T65
393P/Spacewatch-Hill,e,16.7874,36.3916,329.1331,4.796467,0.0938257,0.11998953,147.5181,02/20.0/2024,2000,g 11.0,4.0
# From MPEC 2020-KB7
394P/PANSTARRS,e,8.5297,98.1259,54.4050,4.328716,0.1094373,0.36771834,168.9197,02/20.0/2024,2000,g 16.0,2.4
# From MPEC 2024-C04
395P/Catalina-NEAT,e,3.5799,221.0338,99.2679,7.160990,0.0514333,0.41575731,37.7058,02/20.0/2024,2000,g 10.0,4.0
# From MPEC 2020-KB7
396P/,e,5.4391,136.6285,8.3233,6.801223,0.0555679,0.41628173,90.9823,02/20.0/2024,2000,g 12.0,4.0
# From MPEC 2022-OB6
397P/Lemmon,e,10.9264,8.2266,14.5498,3.831124,0.1314361,0.40508706,176.1036,02/20.0/2024,2000,g 12.0,4.0
# From MPEC 2021-L04
398P/Boattini,e,11.0212,320.1548,127.4935,3.125698,0.1783543,0.58351230,205.0198,02/20.0/2024,2000,g 15.5,4.0
# From MPEC 2023-XP6
399P/PANSTARRS,e,13.3216,207.1303,214.3886,3.792921,0.1334269,0.44743166,133.8038,02/20.0/2024,2000,g 14.0,4.0
# From MPEC 2022-ED3
400P/PANSTARRS,e,10.9299,176.4064,238.8500,3.561923,0.1466146,0.40970880,161.8820,02/20.0/2024,2000,g 15.5,2.8
# From MPEC 2022-K19
401P/McNaught,e,12.8018,359.9035,309.4275,5.777892,0.0709659,0.57885353,109.1036,02/20.0/2024,2000,g 12.5,4.0
# From MPEC 2023-M14
402P/LINEAR,e,30.8341,123.0739,326.8419,7.032896,0.0528449,0.43991124,42.1006,02/20.0/2024,2000,g 11.2,4.0
# From MPEC 2021-J28
403P/Catalina,e,12.3273,277.5832,163.8859,5.430186,0.0778901,0.50423434,97.4279,02/20.0/2024,2000,g 12.0,4.0
# From MPEC 2024-D33
404P/Bressi,e,9.7997,260.0353,169.3856,4.730630,0.0957912,0.12639926,10.3230,02/20.0/2024,2000,g 10.0,4.0
# From MPEC 2021-L04
405P/Lemmon,e,9.3741,112.1898,3.2950,3.604965,0.1439967,0.68976892,165.9285,02/20.0/2024,2000,g 17.5,4.0
# From MPEC 2021-F20
406P/Gibbs,e,1.2113,352.4179,11.5361,3.578163,0.1456176,0.54162547,182.3251,02/20.0/2024,2000,g 17.0,4.0
# From MPEC 2022-YN2
407P/PANSTARRS-Fuls,e,4.8756,80.2556,93.5070,3.484052,0.1515574,0.37728051,225.6026,02/20.0/2024,2000,g 14.0,4.0
# From MPEC 2024-D33
408P/Novichonok-Gerke,e,19.3565,189.4433,226.5638,4.743075,0.0954144,0.26869150,47.9347,02/20.0/2024,2000,g 11.0,4.0
# From MPEC 2022-ED3
409P/LONEOS-Hill,e,17.1318,143.6503,15.0608,6.034592,0.0664863,0.70980010,74.3277,02/20.0/2024,2000,g 14.0,4.0
# From MPEC 2022-M21
410P/NEAT-LINEAR,e,9.3893,139.9748,313.1442,6.647093,0.0575117,0.51158193,55.8359,02/20.0/2024,2000,g 12.5,4.0
# From MPEC 2021-J28
411P/Christensen,e,12.3883,77.6525,46.5598,5.811479,0.0703516,0.58130625,78.8855,02/20.0/2024,2000,g 13.5,4.0
# From MPEC 2021-F20
412P/WISE,e,8.9311,0.8456,155.9044,3.110473,0.1796654,0.47893870,210.7095,02/20.0/2024,2000,g 17.0,4.0
# From MPEC 2022-OB6
413P/Larson,e,15.9824,39.2252,186.5322,3.730816,0.1367723,0.42011873,129.3569,02/20.0/2024,2000,g 14.0,4.0
# From MPEC 2021-BE3
414P/STEREO,e,23.4059,257.8161,210.6862,2.792919,0.2111624,0.81206182,236.5999,02/20.0/2024,2000,g 19.0,4.0
# From MPEC 2022-J42
415P/Tenagra,e,31.7960,160.2726,345.8961,4.110083,0.1182846,0.19500653,130.2915,02/20.0/2024,2000,g 12.0,4.0
# From MPEC 2021-L04
416P/Scotti,e,3.3617,355.7718,134.4059,4.008051,0.1228299,0.45488160,135.0350,02/20.0/2024,2000,g 15.5,4.0
# From MPEC 2021-W31
417P/NEOWISE,e,8.2102,125.7209,114.1165,3.314483,0.1633354,0.56815820,167.7686,02/20.0/2024,2000,g 16.5,4.0
# From MPEC 2022-TA0
418P/LINEAR,e,5.7802,277.6561,307.3655,5.094778,0.0857070,0.66385685,73.3720,02/20.0/2024,2000,g 13.0,4.0
# From MPEC 2023-UR6
419P/PANSTARRS,e,2.8018,40.4062,187.8454,3.526578,0.1488243,0.27633998,125.7968,02/20.0/2024,2000,g 12.5,4.0
# From MPEC 2024-C04
420P/Hill,e,14.4855,173.8187,156.5805,5.506864,0.0762689,0.49555915,48.8708,02/20.0/2024,2000,g 11.5,4.0
# From MPEC 2021-W31
421P/McNaught,e,10.0758,55.3317,259.8977,5.076396,0.0861729,0.67476430,96.5936,02/20.0/2024,2000,g 14.0,4.0
# From MPEC 2022-X67
422P/Christensen,e,39.5844,36.0266,304.8519,6.283920,0.0625688,0.50646955,48.1119,02/20.0/2024,2000,g 11.0,4.0
# From MPEC 2023-FK0
423P/Lemmon,e,8.3459,33.2973,80.5000,6.175620,0.0642219,0.12235852,56.6293,02/20.0/2024,2000,g  8.0,4.0
# From MPEC 2022-CN4
424P/LaSagra,e,8.6830,51.1922,312.5452,4.419066,0.1060983,0.69100266,89.2784,02/20.0/2024,2000,g 17.0,4.0
# From MPEC 2024-C04
425P/Kowalski,e,16.4207,210.0748,200.8956,6.345050,0.0616668,0.54403316,54.3903,02/20.0/2024,2000,g 12.0,4.0
# From MPEC 2024-A43
426P/PANSTARRS,e,17.7774,280.3976,118.6505,3.188829,0.1730841,0.16160285,27.9476,02/20.0/2024,2000,g 13.5,4.0
# From MPEC 2023-J29
428P/Gibbs,e,8.5067,299.3312,36.8990,3.486987,0.1513661,0.51879336,153.1451,02/20.0/2024,2000,g 15.0,4.0
# From MPEC 2024-D33
429P/LINEAR-Hill,e,7.5170,322.0553,75.6538,3.554236,0.1470905,0.49132963,114.5360,02/20.0/2024,2000,g 15.5,4.0
# From MPEC 2022-L66
430P/Scotti,e,4.4753,54.6708,94.4254,3.104348,0.1801974,0.49978165,145.9231,02/20.0/2024,2000,g 16.5,4.0
# From MPEC 2023-D72
431P/Scotti,e,22.3911,202.8429,199.9529,3.475590,0.1521112,0.47774014,112.0216,02/20.0/2024,2000,g 14.0,4.0
# From MPEC 2021-U31
432P/PANSTARRS,e,10.0683,239.1309,105.3214,3.036806,0.1862423,0.24138950,168.3449,02/20.0/2024,2000,g 17.0,4.0
# From MPEC 2024-D33
434P/Tenagra,e,6.3362,288.9408,128.2898,4.133252,0.1172914,0.27471260,99.2506,02/20.0/2024,2000,g 13.0,4.0
# From MPEC 2021-W31
435P/PANSTARRS,e,18.8752,98.5371,244.2419,3.020209,0.1877797,0.31808452,176.1029,02/20.0/2024,2000,g 17.0,4.0
# From MPEC 2022-X67
436P/Garradd,e,20.2017,87.1702,282.6994,5.934533,0.0681749,0.66963892,54.7821,02/20.0/2024,2000,g 14.5,4.0
# From MPEC 2023-B57
437P/Lemmon-PANSTARRS,e,3.6889,245.8458,206.8784,4.565049,0.1010499,0.25498830,55.5478,02/20.0/2024,2000,g 13.0,4.0
# From MPEC 2021-W47
438P/Christensen,e,8.2813,260.1196,59.0382,3.850462,0.1304472,0.41468257,184.8154,02/20.0/2024,2000,g 14.5,4.0
# From MPEC 2022-C56
439P/LINEAR,e,7.1136,56.4341,342.0733,3.490663,0.1511270,0.46952765,137.1652,02/20.0/2024,2000,g 13.5,4.0
# From MPEC 2022-WQ9
440P/Kobayashi,e,12.3415,328.8481,183.2869,8.577178,0.0392362,0.76050353,27.1533,02/20.0/2024,2000,g 15.5,4.0
# From MPEC 2022-X67
441P/PANSTARRS,e,2.5744,143.6042,178.8490,4.133922,0.1172629,0.19509224,293.4837,02/20.0/2024,2000,g 13.5,4.0
# From MPEC 2024-BE0
442P/McNaught,e,6.0580,32.0055,310.7577,4.964615,0.0890996,0.53279214,49.0534,02/20.0/2024,2000,g 13.5,4.0
# From MPEC 2023-SQ0
443P/PANSTARRS-Christensen,e,19.8882,108.9426,145.1102,4.125654,0.1176156,0.28339033,58.5639,02/20.0/2024,2000,g 13.5,4.0
# From MPEC 2023-VM5
444P/WISE-PANSTARRS,e,22.2456,88.9571,171.5548,3.439056,0.1545415,0.57054362,91.0457,02/20.0/2024,2000,g 17.0,4.0
# From MPEC 2024-BE0
